ORBCOMM FM05 [-]        
1 25117U 97084F   23232.35963833  .00001494  00000+0  50179-3 0  9998
2 25117  45.0176 316.7545 0002321 163.5818 196.5107 14.41274872345205
ORBCOMM FM06 [+]        
1 25118U 97084G   23232.68529075  .00001599  00000+0  53467-3 0  9990
2 25118  45.0169 315.3361 0002306 188.8490 299.0897 14.41207793345245
ORBCOMM FM07 [-]        
1 25119U 97084H   23232.36298582  .00001570  00000+0  52637-3 0  9999
2 25119  45.0163 317.2902 0002255 140.6031 219.4983 14.41151548345194
ORBCOMM FM03 [-]        
1 25158U 98007B   23232.74826743  .00001552  00000+0  62847-3 0  9990
2 25158 107.9800 210.0909 0049269 329.7066  30.1227 14.31163944328736
ORBCOMM FM04 [+]        
1 25159U 98007C   23232.50586729  .00001414  00000+0  57494-3 0  9991
2 25159 107.9784 212.3532 0044678 328.0463  31.7968 14.31444158328836
ORBCOMM FM17 [-]        
1 25413U 98046A   23232.76281176  .00001196  00000+0  49116-3 0  9992
2 25413  44.9944 155.0235 0000963  63.1438 296.9506 14.32245285307716
ORBCOMM FM18 [-]        
1 25414U 98046B   23231.98261553  .00001283  00000+0  49834-3 0  9997
2 25414  44.9944  91.0733 0003711 160.4992 199.5997 14.34697194308488
ORBCOMM FM19 [+]        
1 25415U 98046C   23232.69720326  .00001263  00000+0  49255-3 0  9990
2 25415  44.9952  88.7981 0002691 150.6878 258.7090 14.34581608308581
